OBJECT_NAME,OBJECT_ID,EPOCH,MEAN_MOTION,ECCENTRICITY,INCLINATION,RA_OF_ASC_NODE,ARG_OF_PERICENTER,MEAN_ANOMALY,EPHEMERIS_TYPE,CLASSIFICATION_TYPE,NORAD_CAT_ID,ELEMENT_SET_NO,REV_AT_EPOCH,BSTAR,MEAN_MOTION_DOT,MEAN_MOTION_DDOT
GALAXY 33 (G-33),2022-128A,2026-06-18T00:18:52.288416,1.00272433,.00016506,0.0150,35.8889,52.5025,49.5933,0,U,54026,999,1375,0,.73E-6,0
GALAXY 34 (G-34),2022-128B,2026-06-17T17:29:13.077312,1.00277403,.00016095,0.0148,14.9716,90.3282,293.9894,0,U,54027,999,1391,0,.53E-6,0
ANGOSAT 2,2022-131A,2026-06-17T14:47:16.935072,1.00272126,.00007151,0.0320,83.0963,28.7776,38.8139,0,U,54033,999,1348,0,.13E-5,0
EUTELSAT HOTBIRD 13F,2022-134A,2026-06-18T02:43:07.771296,1.00271016,.00021097,0.0515,293.9197,61.5289,324.7024,0,U,54048,999,1338,0,.81E-6,0
LDPE-2,2022-144A,2026-06-18T07:02:51.087840,1.00532781,.00018287,5.6166,63.6451,102.1778,49.9747,0,U,54219,999,1185,0,.12E-5,0
EUTELSAT HOTBIRD 13G,2022-146A,2026-06-18T02:43:07.771296,1.00270249,.00019116,0.0495,232.1573,312.7298,135.2535,0,U,54225,999,747,0,.81E-6,0
ZHONGXING-19,2022-148A,2026-06-18T06:51:17.988768,1.00271537,.00023316,0.0167,16.7956,93.8847,61.8615,0,U,54230,999,1339,0,-.88E-6,0
GALAXY 31 (G-31),2022-153A,2026-06-18T07:12:51.089184,1.00271469,.00010763,0.0157,71.4585,6.5690,175.7121,0,U,54243,999,714,0,.7E-7,0
GALAXY 32 (G-32),2022-153B,2026-06-18T06:06:11.976192,1.00271730,.0002065,0.0102,22.6295,11.5608,232.8558,0,U,54244,999,1315,0,-.18E-5,0
EUTELSAT 10B,2022-157A,2026-06-18T04:24:52.864416,1.00265373,.00011007,0.0635,97.7168,11.3837,233.5399,0,U,54259,999,1303,0,.61E-6,0
GALAXY 35 (G-35),2022-170A,2026-06-18T06:04:46.295904,1.00271934,.00017926,0.0145,39.9581,44.0063,180.6091,0,U,54741,999,1290,0,-.168E-5,0
GALAXY 36 (G-36),2022-170B,2026-06-18T03:15:26.760096,1.00270104,.00025621,0.0101,300.3110,144.8983,141.0243,0,U,54742,999,1278,0,-.191E-5,0
METEOSAT-12 (MTG-I1),2022-170C,2026-06-18T04:21:53.150688,1.00272883,.00032126,0.7396,23.1663,71.1822,237.1409,0,U,54743,999,1298,0,-.14E-6,0
SHIJIAN-23 (SJ-23),2023-002A,2026-06-17T17:30:09.823968,1.00087498,.0003809,3.7196,78.3065,272.9008,325.0641,0,U,55131,999,1251,0,-.26E-5,0
APSTAR-6E,2023-005A,2026-06-15T17:07:09.418944,1.00268070,.00011143,0.0372,251.5524,313.0083,90.2366,0,U,55239,999,1867,0,-.316E-5,0
USA 342,2023-008A,2026-06-15T08:02:26.115936,1.00270392,.0000187,0.0090,64.0068,223.8693,120.1932,0,U,55263,999,1249,0,.142E-5,0
LDPE-3A,2023-008B,2026-06-18T07:14:58.384896,0.99144968,.00011231,2.3516,81.6507,61.2178,118.8642,0,U,55264,999,1182,0,.56E-6,0
ELEKTRO-L 4,2023-016A,2026-06-17T19:12:34.051104,1.00270813,.00007987,0.0744,162.3010,12.9032,184.7859,0,U,55506,999,1234,0,-.64E-6,0
AMAZONAS NEXUS,2023-017A,2026-06-17T11:40:14.561760,1.00269694,.0004936,0.0383,36.9392,30.7226,312.1388,0,U,55508,999,704,0,-.287E-5,0
ZHONGXING-26,2023-023A,2026-06-16T18:44:30.448608,1.00271639,.00032663,0.0665,70.0780,19.8711,221.3542,0,U,55686,999,1222,0,-.356E-5,0
LUCH-5X (OLYMP-K 2),2023-031A,2026-06-17T18:23:47.321088,1.00272450,.0000684,0.0237,60.4476,145.7824,37.7201,0,U,55841,999,1194,0,.28E-6,0
GAOFEN-13 02,2023-036A,2026-06-18T06:47:03.395616,1.00270275,.00040987,1.0210,1.3120,335.9566,179.3112,0,U,55912,999,1210,0,-.225E-5,0
SES-18,2023-038A,2026-06-18T05:35:20.990112,1.00271547,.00001393,0.0184,297.1105,327.0810,343.0160,0,U,55970,999,1211,0,-.107E-5,0
SES-19,2023-038B,2026-06-18T07:08:43.984320,1.00271979,.00014466,0.0134,20.9539,61.7552,156.1113,0,U,55971,999,1210,0,.82E-6,0
INTELSAT 40E (IS-40E),2023-052A,2026-06-17T15:57:23.984352,1.00271165,.00019225,0.0189,48.0105,78.3886,287.8621,0,U,56174,999,1182,0,-.179E-5,0
VIASAT-3 F1,2023-060A,2026-06-17T15:57:38.960064,1.00270651,.00010912,0.0240,348.4553,91.8716,336.0422,0,U,56370,999,1143,0,0,0
ARCTURUS,2023-060B,2026-06-16T22:51:22.921632,1.00272378,.00025588,2.7748,79.9563,49.6160,190.9835,0,U,56371,999,1145,0,-.68E-6,0
GS-1,2023-060C,2026-06-17T20:14:15.131616,1.00274442,.00038166,2.7275,79.8251,282.0465,297.1917,0,U,56372,999,754,0,-.231E-5,0
BEIDOU-3 G4,2023-066A,2026-06-18T06:44:41.123328,1.00273363,.00043567,0.4853,331.8225,180.3372,355.5712,0,U,56564,999,1140,0,-.287E-5,0
ARABSAT-7B (BADR-8),2023-075A,2026-06-17T21:38:46.388256,1.00271185,.00044989,0.0761,29.2884,354.1441,233.4156,0,U,56757,999,1112,0,.139E-5,0
NVS-01 (IRNSS-1J),2023-076A,2026-06-18T06:41:33.923040,1.00264298,.00031274,2.1627,244.2917,36.1064,215.9343,0,U,56759,999,1112,0,-.342E-5,0
